{
  "type": "FeatureCollection",
  "features": [
    {
      "type": "Feature",
      "properties": {
        "norad_id": 25590,
        "name": "COSMOS 2361",
        "group": "musson",
        "lat": 81.86888744146326,
        "lon": 50.453190393225256,
        "alt_km": 1000.9346960256998,
        "timestamp": "2025-12-04T10:51:50.375223+00:00",
        "meta_object_name": "COSMOS 2361",
        "meta_object_id": "1998-076A",
        "meta_epoch": "2025-12-04T03:46:53.901120",
        "meta_mean_motion": 13.73216093,
        "meta_eccentricity": 0.0030148,
        "meta_inclination": 82.9341,
        "meta_ra_of_asc_node": 350.4345,
        "meta_arg_of_pericenter": 290.5381,
        "meta_mean_anomaly": 137.2839,
        "meta_ephemeris_type": 0,
        "meta_classification_type": "U",
        "meta_norad_cat_id": 25590,
        "meta_element_set_no": 999,
        "meta_rev_at_epoch": 34993,
        "meta_bstar": 9.2889e-05,
        "meta_mean_motion_dot": 1.01e-06,
        "meta_mean_motion_ddot": 0,
        "tle_line1": "1 25590U 98076A   25338.15756830  .00000101  00000+0  92889-4 0  9998",
        "tle_line2": "2 25590  82.9341 350.4345 0030148 290.5381 137.2839 13.73216093349934"
      },
      "geometry": {
        "type": "Point",
        "coordinates": [
          50.453190393225256,
          81.86888744146326
        ]
      }
    },
    {
      "type": "Feature",
      "properties": {
        "norad_id": 26818,
        "name": "COSMOS 2378",
        "group": "musson",
        "lat": 48.86925537690574,
        "lon": 177.6980122302474,
        "alt_km": 983.5158528497477,
        "timestamp": "2025-12-04T10:51:50.375244+00:00",
        "meta_object_name": "COSMOS 2378",
        "meta_object_id": "2001-023A",
        "meta_epoch": "2025-12-03T21:05:46.153824",
        "meta_mean_motion": 13.74140869,
        "meta_eccentricity": 0.00319386,
        "meta_inclination": 82.9279,
        "meta_ra_of_asc_node": 6.2953,
        "meta_arg_of_pericenter": 230.1645,
        "meta_mean_anomaly": 304.508,
        "meta_ephemeris_type": 0,
        "meta_classification_type": "U",
        "meta_norad_cat_id": 26818,
        "meta_element_set_no": 999,
        "meta_rev_at_epoch": 22801,
        "meta_bstar": 9.0272101e-05,
        "meta_mean_motion_dot": 1e-06,
        "meta_mean_motion_ddot": 0,
        "tle_line1": "1 26818U 01023A   25337.87900641  .00000100  00000+0  90272-4 0  9990",
        "tle_line2": "2 26818  82.9279   6.2953 0031938 230.1645 304.5080 13.74140869228010"
      },
      "geometry": {
        "type": "Point",
        "coordinates": [
          177.6980122302474,
          48.86925537690574
        ]
      }
    },
    {
      "type": "Feature",
      "properties": {
        "norad_id": 27436,
        "name": "COSMOS 2389",
        "group": "musson",
        "lat": -52.20634142801707,
        "lon": -56.062174648348055,
        "alt_km": 1013.2579214198204,
        "timestamp": "2025-12-04T10:51:50.375277+00:00",
        "meta_object_name": "COSMOS 2389",
        "meta_object_id": "2002-026A",
        "meta_epoch": "2025-12-04T04:11:21.412896",
        "meta_mean_motion": 13.75153276,
        "meta_eccentricity": 0.0047769,
        "meta_inclination": 82.9495,
        "meta_ra_of_asc_node": 313.3262,
        "meta_arg_of_pericenter": 84.0076,
        "meta_mean_anomaly": 287.6394,
        "meta_ephemeris_type": 0,
        "meta_classification_type": "U",
        "meta_norad_cat_id": 27436,
        "meta_element_set_no": 999,
        "meta_rev_at_epoch": 18031,
        "meta_bstar": 7.5098e-05,
        "meta_mean_motion_dot": 8.8e-07,
        "meta_mean_motion_ddot": 0,
        "tle_line1": "1 27436U 02026A   25338.17455339  .00000088  00000+0  75098-4 0  9998",
        "tle_line2": "2 27436  82.9495 313.3262 0047769  84.0076 287.6394 13.75153276180311"
      },
      "geometry": {
        "type": "Point",
        "coordinates": [
          -56.062174648348055,
          -52.20634142801707
        ]
      }
    },
    {
      "type": "Feature",
      "properties": {
        "norad_id": 27818,
        "name": "COSMOS 2398",
        "group": "musson",
        "lat": -17.30498824589824,
        "lon": -83.40478417285583,
        "alt_km": 1016.7130202977705,
        "timestamp": "2025-12-04T10:51:50.375292+00:00",
        "meta_object_name": "COSMOS 2398",
        "meta_object_id": "2003-023A",
        "meta_epoch": "2025-12-03T21:12:51.292800",
        "meta_mean_motion": 13.72384416,
        "meta_eccentricity": 0.00322443,
        "meta_inclination": 82.9476,
        "meta_ra_of_asc_node": 279.2246,
        "meta_arg_of_pericenter": 135.5715,
        "meta_mean_anomaly": 278.9534,
        "meta_ephemeris_type": 0,
        "meta_classification_type": "U",
        "meta_norad_cat_id": 27818,
        "meta_element_set_no": 999,
        "meta_rev_at_epoch": 12695,
        "meta_bstar": 5.941652e-05,
        "meta_mean_motion_dot": 7e-07,
        "meta_mean_motion_ddot": 0,
        "tle_line1": "1 27818U 03023A   25337.88392700  .00000070  00000+0  59417-4 0  9997",
        "tle_line2": "2 27818  82.9476 279.2246 0032244 135.5715 278.9534 13.72384416126958"
      },
      "geometry": {
        "type": "Point",
        "coordinates": [
          -83.40478417285583,
          -17.30498824589824
        ]
      }
    },
    {
      "type": "Feature",
      "properties": {
        "norad_id": 28380,
        "name": "COSMOS 2407",
        "group": "musson",
        "lat": 60.5972164217895,
        "lon": -128.30821866047555,
        "alt_km": 942.4218063146445,
        "timestamp": "2025-12-04T10:51:50.375303+00:00",
        "meta_object_name": "COSMOS 2407",
        "meta_object_id": "2004-028A",
        "meta_epoch": "2025-12-03T19:12:08.773920",
        "meta_mean_motion": 13.76312141,
        "meta_eccentricity": 0.00405254,
        "meta_inclination": 82.9613,
        "meta_ra_of_asc_node": 219.5109,
        "meta_arg_of_pericenter": 79.0926,
        "meta_mean_anomaly": 351.011,
        "meta_ephemeris_type": 0,
        "meta_classification_type": "U",
        "meta_norad_cat_id": 28380,
        "meta_element_set_no": 999,
        "meta_rev_at_epoch": 7300,
        "meta_bstar": 9.9856988e-05,
        "meta_mean_motion_dot": 1.14e-06,
        "meta_mean_motion_ddot": 0,
        "tle_line1": "1 28380U 04028A   25337.80010155  .00000114  00000+0  99857-4 0  9992",
        "tle_line2": "2 28380  82.9613 219.5109 0040525  79.0926 351.0110 13.76312141 73008"
      },
      "geometry": {
        "type": "Point",
        "coordinates": [
          -128.30821866047555,
          60.5972164217895
        ]
      }
    },
    {
      "type": "Feature",
      "properties": {
        "norad_id": 28521,
        "name": "COSMOS 2414",
        "group": "musson",
        "lat": -20.212838447476358,
        "lon": -171.68546423709506,
        "alt_km": 970.6055844785024,
        "timestamp": "2025-12-04T10:51:50.375314+00:00",
        "meta_object_name": "COSMOS 2414",
        "meta_object_id": "2005-002A",
        "meta_epoch": "2025-12-03T17:39:37.668096",
        "meta_mean_motion": 13.87901131,
        "meta_eccentricity": 0.00403428,
        "meta_inclination": 82.9499,
        "meta_ra_of_asc_node": 191.468,
        "meta_arg_of_pericenter": 164.9748,
        "meta_mean_anomaly": 195.2625,
        "meta_ephemeris_type": 0,
        "meta_classification_type": "U",
        "meta_norad_cat_id": 28521,
        "meta_element_set_no": 999,
        "meta_rev_at_epoch": 5670,
        "meta_bstar": 9.3001106e-05,
        "meta_mean_motion_dot": 1.27e-06,
        "meta_mean_motion_ddot": 0,
        "tle_line1": "1 28521U 05002A   25337.73585264  .00000127  00000+0  93001-4 0  9991",
        "tle_line2": "2 28521  82.9499 191.4680 0040342 164.9748 195.2625 13.87901131 56704"
      },
      "geometry": {
        "type": "Point",
        "coordinates": [
          -171.68546423709506,
          -20.212838447476358
        ]
      }
    },
    {
      "type": "Feature",
      "properties": {
        "norad_id": 32052,
        "name": "COSMOS 2429",
        "group": "musson",
        "lat": 45.34031231106119,
        "lon": 162.25654799879166,
        "alt_km": 968.9603640898977,
        "timestamp": "2025-12-04T10:51:50.375324+00:00",
        "meta_object_name": "COSMOS 2429",
        "meta_object_id": "2007-038A",
        "meta_epoch": "2025-12-04T01:29:11.909760",
        "meta_mean_motion": 13.75148154,
        "meta_eccentricity": 0.0039603,
        "meta_inclination": 82.9805,
        "meta_ra_of_asc_node": 349.7066,
        "meta_arg_of_pericenter": 61.4656,
        "meta_mean_anomaly": 299.0478,
        "meta_ephemeris_type": 0,
        "meta_classification_type": "U",
        "meta_norad_cat_id": 32052,
        "meta_element_set_no": 999,
        "meta_rev_at_epoch": 91483,
        "meta_bstar": 7.8335e-05,
        "meta_mean_motion_dot": 9.1e-07,
        "meta_mean_motion_ddot": 0,
        "tle_line1": "1 32052U 07038A   25338.06194340  .00000091  00000+0  78335-4 0  9997",
        "tle_line2": "2 32052  82.9805 349.7066 0039603  61.4656 299.0478 13.75148154914833"
      },
      "geometry": {
        "type": "Point",
        "coordinates": [
          162.25654799879166,
          45.34031231106119
        ]
      }
    },
    {
      "type": "Feature",
      "properties": {
        "norad_id": 35635,
        "name": "COSMOS 2454",
        "group": "musson",
        "lat": -30.47178676658414,
        "lon": 170.75477011575262,
        "alt_km": 943.7009302592896,
        "timestamp": "2025-12-04T10:51:50.375335+00:00",
        "meta_object_name": "COSMOS 2454",
        "meta_object_id": "2009-039A",
        "meta_epoch": "2025-12-04T01:28:26.193792",
        "meta_mean_motion": 13.89927029,
        "meta_eccentricity": 0.0020486,
        "meta_inclination": 82.9557,
        "meta_ra_of_asc_node": 175.2234,
        "meta_arg_of_pericenter": 96.933,
        "meta_mean_anomaly": 76.0293,
        "meta_ephemeris_type": 0,
        "meta_classification_type": "U",
        "meta_norad_cat_id": 35635,
        "meta_element_set_no": 999,
        "meta_rev_at_epoch": 83029,
        "meta_bstar": 9.3342e-05,
        "meta_mean_motion_dot": 1.31e-06,
        "meta_mean_motion_ddot": 0,
        "tle_line1": "1 35635U 09039A   25338.06141428  .00000131  00000+0  93342-4 0  9999",
        "tle_line2": "2 35635  82.9557 175.2234 0020486  96.9330  76.0293 13.89927029830293"
      },
      "geometry": {
        "type": "Point",
        "coordinates": [
          170.75477011575262,
          -30.47178676658414
        ]
      }
    },
    {
      "type": "Feature",
      "properties": {
        "norad_id": 36519,
        "name": "COSMOS 2463",
        "group": "musson",
        "lat": -14.066511789384501,
        "lon": -145.42414456781773,
        "alt_km": 1010.1942407177758,
        "timestamp": "2025-12-04T10:51:50.375345+00:00",
        "meta_object_name": "COSMOS 2463",
        "meta_object_id": "2010-017A",
        "meta_epoch": "2025-12-04T03:03:16.527168",
        "meta_mean_motion": 13.71648053,
        "meta_eccentricity": 0.0035096,
        "meta_inclination": 82.962,
        "meta_ra_of_asc_node": 33.0411,
        "meta_arg_of_pericenter": 312.7614,
        "meta_mean_anomaly": 75.7962,
        "meta_ephemeris_type": 0,
        "meta_classification_type": "U",
        "meta_norad_cat_id": 36519,
        "meta_element_set_no": 999,
        "meta_rev_at_epoch": 78119,
        "meta_bstar": 0.00010366,
        "meta_mean_motion_dot": 1.09e-06,
        "meta_mean_motion_ddot": 0,
        "tle_line1": "1 36519U 10017A   25338.12727462  .00000109  00000+0  10366-3 0  9993",
        "tle_line2": "2 36519  82.9620  33.0411 0035096 312.7614  75.7962 13.71648053781192"
      },
      "geometry": {
        "type": "Point",
        "coordinates": [
          -145.42414456781773,
          -14.066511789384501
        ]
      }
    }
  ]
}